start=new Date('2023-05-28T00:00:00.000Z').valueOf();
sats=[{"BSTAR":"0.00005317500000","DECAY_DATE":null,"MEAN_MOTION_DDOT":"0.0000000000000","OBJECT_ID":"2022-119AL","PERIAPSIS":"539.013","TIME_SYSTEM":"UTC","COUNTRY_CODE":"US","PERIOD":"95.438","ARG_OF_PERICENTER":"85.0251","GP_ID":"232635633","OBJECT_TYPE":"PAYLOAD","EPHEMERIS_TYPE":"0","CLASSIFICATION_TYPE":"U","APOAPSIS":"540.475","MEAN_MOTION_DOT":"0.00000559","LAUNCH_DATE":"2022-09-24","ELEMENT_SET_NO":"999","REV_AT_EPOCH":"3832","MEAN_ANOMALY":"275.0862","INCLINATION":"53.2157","RA_OF_ASC_NODE":"198.5601","OBJECT_NAME":"STARLINK-5025","TLE_LINE1":"1 53920U 22119AL  23147.87666188  .00000559  00000-0  53175-4 0  9995","ECCENTRICITY":"0.00010570","CENTER_NAME":"EARTH","MEAN_MOTION":"15.08840431","FILE":"3918755","REF_FRAME":"TEME","RCS_SIZE":"LARGE","MEAN_ELEMENT_THEORY":"SGP4","TLE_LINE2":"2 53920  53.2157 198.5601 0001057  85.0251 275.0862 15.08840431 38328","EPOCH":"2023-05-27T21:02:23.586432","SEMIMAJOR_AXIS":"6917.879","NORAD_CAT_ID":"53920","SITE":"AFETR"},{"PERIAPSIS":"539.162","OBJECT_ID":"2022-119AN","MEAN_MOTION_DDOT":"0.0000000000000","DECAY_DATE":null,"BSTAR":"0.00007757000000","GP_ID":"232634881","PERIOD":"95.437","ARG_OF_PERICENTER":"80.9601","COUNTRY_CODE":"US","TIME_SYSTEM":"UTC","CLASSIFICATION_TYPE":"U","EPHEMERIS_TYPE":"0","OBJECT_TYPE":"PAYLOAD","INCLINATION":"53.2162","RA_OF_ASC_NODE":"198.5379","MEAN_ANOMALY":"279.1486","REV_AT_EPOCH":"3832","MEAN_MOTION_DOT":"0.00000947","LAUNCH_DATE":"2022-09-24","ELEMENT_SET_NO":"999","APOAPSIS":"540.321","REF_FRAME":"TEME","FILE":"3918755","MEAN_MOTION":"15.08841303","CENTER_NAME":"EARTH","ECCENTRICITY":"0.00008380","TLE_LINE1":"1 53922U 22119AN  23147.87297609  .00000947  00000-0  77570-4 0  9991","OBJECT_NAME":"STARLINK-5002","RCS_SIZE":"LARGE","NORAD_CAT_ID":"53922","SEMIMAJOR_AXIS":"6917.876","EPOCH":"2023-05-27T20:57:05.134176","TLE_LINE2":"2 53922  53.2162 198.5379 0000838  80.9601 279.1486 15.08841303 38323","MEAN_ELEMENT_THEORY":"SGP4","SITE":"AFETR"},{"OBJECT_ID":"2022-119AP","PERIAPSIS":"538.981","BSTAR":"0.00003367300000","DECAY_DATE":null,"MEAN_MOTION_DDOT":"0.0000000000000","PERIOD":"95.438","ARG_OF_PERICENTER":"90.1379","GP_ID":"232635131","TIME_SYSTEM":"UTC","COUNTRY_CODE":"US","EPHEMERIS_TYPE":"0","CLASSIFICATION_TYPE":"U","OBJECT_TYPE":"PAYLOAD","INCLINATION":"53.2158","RA_OF_ASC_NODE":"198.5827","APOAPSIS":"540.507","LAUNCH_DATE":"2022-09-24","ELEMENT_SET_NO":"999","MEAN_MOTION_DOT":"0.00000248","REV_AT_EPOCH":"3832","MEAN_ANOMALY":"269.9740","MEAN_MOTION":"15.08840386","FILE":"3918755","REF_FRAME":"TEME","OBJECT_NAME":"STARLINK-5004","TLE_LINE1":"1 53923U 22119AP  23147.88034363  .00000248  00000-0  33673-4 0  9999","ECCENTRICITY":"0.00011030","CENTER_NAME":"EARTH","RCS_SIZE":"LARGE","TLE_LINE2":"2 53923  53.2158 198.5827 0001103  90.1379 269.9740 15.08840386 38328","EPOCH":"2023-05-27T21:07:41.689632","SEMIMAJOR_AXIS":"6917.879","NORAD_CAT_ID":"53923","MEAN_ELEMENT_THEORY":"SGP4","SITE":"AFETR"},{"INCLINATION":"53.2149","RA_OF_ASC_NODE":"193.9286","MEAN_ANOMALY":"283.0258","REV_AT_EPOCH":"3838","LAUNCH_DATE":"2022-09-24","MEAN_MOTION_DOT":"-0.00000336","ELEMENT_SET_NO":"999","APOAPSIS":"540.542","CLASSIFICATION_TYPE":"U","EPHEMERIS_TYPE":"0","OBJECT_TYPE":"PAYLOAD","GP_ID":"232635383","ARG_OF_PERICENTER":"77.0861","PERIOD":"95.438","COUNTRY_CODE":"US","TIME_SYSTEM":"UTC","PERIAPSIS":"538.967","OBJECT_ID":"2022-119AQ","MEAN_MOTION_DDOT":"0.0000000000000","DECAY_DATE":null,"BSTAR":"-0.00000305710000","SITE":"AFETR","NORAD_CAT_ID":"53924","EPOCH":"2023-05-27T19:40:56.346240","SEMIMAJOR_AXIS":"6917.890","TLE_LINE2":"2 53924  53.2149 193.9286 0001138  77.0861 283.0258 15.08836961 38386","MEAN_ELEMENT_THEORY":"SGP4","RCS_SIZE":"LARGE","REF_FRAME":"TEME","MEAN_MOTION":"15.08836961","FILE":"3918755","ECCENTRICITY":"0.00011380","CENTER_NAME":"EARTH","TLE_LINE1":"1 53924U 22119AQ  23147.82009660 -.00000336  00000-0 -30571-5 0  9991","OBJECT_NAME":"STARLINK-5001"},{"MEAN_MOTION_DDOT":"0.0000000000000","DECAY_DATE":null,"BSTAR":"0.00002194600000","PERIAPSIS":"538.979","OBJECT_ID":"2022-119AR","COUNTRY_CODE":"US","TIME_SYSTEM":"UTC","GP_ID":"232636133","ARG_OF_PERICENTER":"82.0559","PERIOD":"95.438","OBJECT_TYPE":"PAYLOAD","CLASSIFICATION_TYPE":"U","EPHEMERIS_TYPE":"0","MEAN_ANOMALY":"278.0561","REV_AT_EPOCH":"3832","MEAN_MOTION_DOT":"0.00000061","LAUNCH_DATE":"2022-09-24","ELEMENT_SET_NO":"999","APOAPSIS":"540.538","RA_OF_ASC_NODE":"198.4529","INCLINATION":"53.2159","CENTER_NAME":"EARTH","ECCENTRICITY":"0.00011270","TLE_LINE1":"1 53925U 22119AR  23147.85824173  .00000061  00000-0  21946-4 0  9997","OBJECT_NAME":"STARLINK-5011","REF_FRAME":"TEME","MEAN_MOTION":"15.08835670","FILE":"3918755","RCS_SIZE":"LARGE","MEAN_ELEMENT_THEORY":"SGP4","NORAD_CAT_ID":"53925","EPOCH":"2023-05-27T20:35:52.085472","SEMIMAJOR_AXIS":"6917.894","TLE_LINE2":"2 53925  53.2159 198.4529 0001127  82.0559 278.0561 15.08835670 38327","SITE":"AFETR"},{"SITE":"AFETR","EPOCH":"2023-05-27T09:52:42.135456","SEMIMAJOR_AXIS":"6917.879","NORAD_CAT_ID":"53926","TLE_LINE2":"2 53926  53.2146 195.6435 0000853  74.5697 285.5390 15.08840320 38335","MEAN_ELEMENT_THEORY":"SGP4","RCS_SIZE":"LARGE","REF_FRAME":"TEME","MEAN_MOTION":"15.08840320","FILE":"3918755","TLE_LINE1":"1 53926U 22119AS  23147.41159879  .00001026  00000-0  82514-4 0  9994","CENTER_NAME":"EARTH","ECCENTRICITY":"0.00008530","OBJECT_NAME":"STARLINK-5014","INCLINATION":"53.2146","RA_OF_ASC_NODE":"195.6435","REV_AT_EPOCH":"3833","MEAN_ANOMALY":"285.5390","APOAPSIS":"540.335","LAUNCH_DATE":"2022-09-24","MEAN_MOTION_DOT":"0.00001026","ELEMENT_SET_NO":"999","CLASSIFICATION_TYPE":"U","EPHEMERIS_TYPE":"0","OBJECT_TYPE":"PAYLOAD","ARG_OF_PERICENTER":"74.5697","PERIOD":"95.438","GP_ID":"232634382","COUNTRY_CODE":"US","TIME_SYSTEM":"UTC","PERIAPSIS":"539.154","OBJECT_ID":"2022-119AS","DECAY_DATE":null,"MEAN_MOTION_DDOT":"0.0000000000000","BSTAR":"0.00008251400000"},{"CLASSIFICATION_TYPE":"U","EPHEMERIS_TYPE":"0","OBJECT_TYPE":"PAYLOAD","INCLINATION":"53.2161","RA_OF_ASC_NODE":"193.9887","REV_AT_EPOCH":"3838","MEAN_ANOMALY":"262.6594","APOAPSIS":"540.506","LAUNCH_DATE":"2022-09-24","ELEMENT_SET_NO":"999","MEAN_MOTION_DOT":"-0.00000013","PERIAPSIS":"539.005","OBJECT_ID":"2022-119AT","DECAY_DATE":null,"MEAN_MOTION_DDOT":"0.0000000000000","BSTAR":"0.00001728800000","ARG_OF_PERICENTER":"97.4521","PERIOD":"95.438","GP_ID":"232634632","COUNTRY_CODE":"US","TIME_SYSTEM":"UTC","EPOCH":"2023-05-27T19:51:33.153120","SEMIMAJOR_AXIS":"6917.890","NORAD_CAT_ID":"53927","TLE_LINE2":"2 53927  53.2161 193.9887 0001085  97.4521 262.6594 15.08836739 38389","MEAN_ELEMENT_THEORY":"SGP4","SITE":"AFETR","REF_FRAME":"TEME","MEAN_MOTION":"15.08836739","FILE":"3918755","TLE_LINE1":"1 53927U 22119AT  23147.82746705 -.00000013  00000-0  17288-4 0  9992","CENTER_NAME":"EARTH","ECCENTRICITY":"0.00010850","OBJECT_NAME":"STARLINK-5008","RCS_SIZE":"LARGE"},{"TLE_LINE2":"2 53928  53.2158 188.9312 0001103  97.7347 262.3770 15.08835583 38450","EPOCH":"2023-05-27T19:38:57.139296","SEMIMAJOR_AXIS":"6917.894","NORAD_CAT_ID":"53928","MEAN_ELEMENT_THEORY":"SGP4","SITE":"AFETR","FILE":"3918755","MEAN_MOTION":"15.08835583","REF_FRAME":"TEME","OBJECT_NAME":"STARLINK-5009","TLE_LINE1":"1 53928U 22119AU  23147.81871689  .00000019  00000-0  19280-4 0  9991","ECCENTRICITY":"0.00011030","CENTER_NAME":"EARTH","RCS_SIZE":"LARGE","EPHEMERIS_TYPE":"0","CLASSIFICATION_TYPE":"U","OBJECT_TYPE":"PAYLOAD","RA_OF_ASC_NODE":"188.9312","INCLINATION":"53.2158","APOAPSIS":"540.522","MEAN_MOTION_DOT":"0.00000019","LAUNCH_DATE":"2022-09-24","ELEMENT_SET_NO":"999","REV_AT_EPOCH":"3845","MEAN_ANOMALY":"262.3770","OBJECT_ID":"2022-119AU","PERIAPSIS":"538.996","BSTAR":"0.00001928000000","DECAY_DATE":null,"MEAN_MOTION_DDOT":"0.0000000000000","PERIOD":"95.438","ARG_OF_PERICENTER":"97.7347","GP_ID":"232635883","TIME_SYSTEM":"UTC","COUNTRY_CODE":"US"},{"MEAN_ELEMENT_THEORY":"SGP4","TLE_LINE2":"2 53929  53.2152 198.5141 0001042  89.4118 270.6994 15.08836132 38325","EPOCH":"2023-05-27T20:51:47.017152","SEMIMAJOR_AXIS":"6917.892","NORAD_CAT_ID":"53929","SITE":"AFETR","OBJECT_NAME":"STARLINK-5018","TLE_LINE1":"1 53929U 22119AV  23147.86929418 -.00000056  00000-0  14533-4 0  9999","ECCENTRICITY":"0.00010420","CENTER_NAME":"EARTH","MEAN_MOTION":"15.08836132","FILE":"3918755","REF_FRAME":"TEME","RCS_SIZE":"LARGE","OBJECT_TYPE":"PAYLOAD","EPHEMERIS_TYPE":"0","CLASSIFICATION_TYPE":"U","APOAPSIS":"540.478","ELEMENT_SET_NO":"999","LAUNCH_DATE":"2022-09-24","MEAN_MOTION_DOT":"-0.00000056","REV_AT_EPOCH":"3832","MEAN_ANOMALY":"270.6994","RA_OF_ASC_NODE":"198.5141","INCLINATION":"53.2152","BSTAR":"0.00001453300000","DECAY_DATE":null,"MEAN_MOTION_DDOT":"0.0000000000000","OBJECT_ID":"2022-119AV","PERIAPSIS":"539.036","TIME_SYSTEM":"UTC","COUNTRY_CODE":"US","ARG_OF_PERICENTER":"89.4118","PERIOD":"95.438","GP_ID":"232635634"},{"INCLINATION":"53.2155","RA_OF_ASC_NODE":"188.8399","ELEMENT_SET_NO":"999","LAUNCH_DATE":"2022-09-24","MEAN_MOTION_DOT":"-0.00000749","APOAPSIS":"540.271","MEAN_ANOMALY":"282.3392","REV_AT_EPOCH":"3845","EPHEMERIS_TYPE":"0","CLASSIFICATION_TYPE":"U","OBJECT_TYPE":"PAYLOAD","GP_ID":"232634882","PERIOD":"95.438","ARG_OF_PERICENTER":"77.7682","TIME_SYSTEM":"UTC","COUNTRY_CODE":"US","OBJECT_ID":"2022-119AW","PERIAPSIS":"539.252","BSTAR":"-0.00002900200000","MEAN_MOTION_DDOT":"0.0000000000000","DECAY_DATE":null,"SITE":"AFETR","TLE_LINE2":"2 53930  53.2155 188.8399 0000737  77.7682 282.3392 15.08834756 38459","NORAD_CAT_ID":"53930","SEMIMAJOR_AXIS":"6917.896","EPOCH":"2023-05-27T19:17:43.630944","MEAN_ELEMENT_THEORY":"SGP4","RCS_SIZE":"LARGE","FILE":"3918755","MEAN_MOTION":"15.08834756","REF_FRAME":"TEME","OBJECT_NAME":"STARLINK-5010","CENTER_NAME":"EARTH","ECCENTRICITY":"0.00007370","TLE_LINE1":"1 53930U 22119AW  23147.80397721 -.00000749  00000-0 -29002-4 0  9998"}];
